NORAD_CAT_ID,OBJECT_NAME,OBJECT_TYPE,EPOCH,MEAN_MOTION,ECCENTRICITY,INCLINATION,RA_OF_ASC_NODE,ARG_OF_PERICENTER,MEAN_ANOMALY,BSTAR,MEAN_MOTION_DOT,MEAN_MOTION_DDOT,TLE_LINE0,TLE_LINE1,TLE_LINE2,SEMIMAJOR_AXIS,PERIOD,APOGEE,PERIGEE,DECAYED
55772.0,STARLINK-5835,PAYLOAD,2023-11-29 13:59:14,14.98324587,0.000268,69.9984,159.8786,273.9735,86.1118,0.00015449,1.751e-05,0.0,0 STARLINK-5835,1 55772U 23028AH  23333.58280663  .00001751  00000-0  15449-3 0  9993,2 55772  69.9984 159.8786 0002680 273.9735  86.1118 14.98324587 42045,6950.21,96.107,573.937,570.212,0.0
55772.0,STARLINK-5835,PAYLOAD,2023-11-29 18:47:38,14.98330304,0.000244,69.9991,159.3744,263.6151,96.473,3.6726e-05,3.45e-06,0.0,0 STARLINK-5835,1 55772U 23028AH  23333.78308650  .00000345  00000-0  36726-4 0  9992,2 55772  69.9991 159.3744 0002440 263.6151  96.4730 14.98330304 42075,6950.192,96.107,573.753,570.361,0.0
55772.0,STARLINK-5835,PAYLOAD,2023-11-30 18:49:39,14.98328347,0.0002529,69.9995,156.8506,265.519,94.568,1.325e-06,-7.7e-07,0.0,0 STARLINK-5835,1 55772U 23028AH  23334.78448853 -.00000077  00000-0  13250-5 0  9994,2 55772  69.9995 156.8506 0002529 265.5190  94.5680 14.98328347 42223,6950.198,96.107,573.821,570.305,0.0
55772.0,STARLINK-5835,PAYLOAD,2023-12-01 12:27:07,14.98335072,0.0002552,69.9992,154.9986,266.7947,93.292,4.3359e-05,4.24e-06,0.0,0 STARLINK-5835,1 55772U 23028AH  23335.51884252  .00000424  00000-0  43359-4 0  9990,2 55772  69.9992 154.9986 0002552 266.7947  93.2920 14.98335072 42338,6950.177,96.107,573.816,570.269,0.0
55772.0,STARLINK-5835,PAYLOAD,2023-12-01 22:03:56,14.98335888,0.0002526,69.9988,153.9875,273.6838,86.4032,5.1459e-05,5.21e-06,0.0,0 STARLINK-5835,1 55772U 23028AH  23335.91940095  .00000521  00000-0  51459-4 0  9990,2 55772  69.9988 153.9875 0002526 273.6838  86.4032 14.98335888 42395,6950.175,96.107,573.795,570.284,0.0
55772.0,STARLINK-5835,PAYLOAD,2023-12-02 12:29:08,14.98333776,0.0002433,69.999,152.4729,269.4734,90.6146,9.1127e-05,9.95e-06,0.0,0 STARLINK-5835,1 55772U 23028AH  23336.52023965  .00000995  00000-0  91127-4 0  9997,2 55772  69.9990 152.4729 0002433 269.4734  90.6146 14.98333776 42482,6950.181,96.107,573.737,570.355,0.0
55772.0,STARLINK-5835,PAYLOAD,2023-12-02 14:05:16,14.98332112,0.000246,69.9987,152.3044,268.1922,91.8956,7.387e-05,7.89e-06,0.0,0 STARLINK-5835,1 55772U 23028AH  23336.58700059  .00000789  00000-0  73870-4 0  9995,2 55772  69.9987 152.3044 0002460 268.1922  91.8956 14.98332112 42498,6950.186,96.107,573.761,570.342,0.0
55772.0,STARLINK-5835,PAYLOAD,2023-12-02 22:05:57,14.9833075,0.000257,69.9989,151.4631,271.0704,89.0161,5.1371e-05,5.2e-06,0.0,0 STARLINK-5835,1 55772U 23028AH  23336.92080154  .00000520  00000-0  51371-4 0  9995,2 55772  69.9989 151.4631 0002570 271.0704  89.0161 14.98330750 42544,6950.191,96.107,573.842,570.269,0.0
55772.0,STARLINK-5835,PAYLOAD,2023-12-03 12:31:10,14.98327111,0.0002319,69.999,149.9486,264.56,95.5294,-7.3844e-05,-9.74e-06,0.0,0 STARLINK-5835,1 55772U 23028AH  23337.52164757 -.00000974  00000-0 -73844-4 0  9998,2 55772  69.9990 149.9486 0002319 264.5600  95.5294 14.98327111 42635,6950.202,96.107,573.679,570.455,0.0
55772.0,STARLINK-5835,PAYLOAD,2023-12-03 14:07:18,14.98326023,0.0002351,69.9989,149.7806,262.2039,97.8853,-8.5294e-05,-1.11e-05,0.0,0 STARLINK-5835,1 55772U 23028AH  23337.58840839 -.00001110  00000-0 -85294-4 0  9991,2 55772  69.9989 149.7806 0002351 262.2039  97.8853 14.98326023 42642,6950.205,96.107,573.704,570.436,0.0
55772.0,STARLINK-5835,PAYLOAD,2023-12-03 22:07:59,14.98319463,0.0001971,69.9989,148.939,259.2197,100.874,-6.039e-05,-8.13e-06,0.0,0 STARLINK-5835,1 55772U 23028AH  23337.92221352 -.00000813  00000-0 -60390-4 0  9991,2 55772  69.9989 148.9390 0001971 259.2197 100.8740 14.98319463 42694,6950.225,96.108,573.46,570.721,0.0
55772.0,STARLINK-5835,PAYLOAD,2023-12-04 10:57:03,14.98326584,0.000253,69.9987,147.5923,268.8473,91.2396,-3.6411e-05,-5.27e-06,0.0,0 STARLINK-5835,1 55772U 23028AH  23338.45628931 -.00000527  00000-0 -36411-4 0  9993,2 55772  69.9987 147.5923 0002530 268.8473  91.2396 14.98326584 42775,6950.203,96.107,573.827,570.31,0.0
55772.0,STARLINK-5835,PAYLOAD,2023-12-04 12:33:11,14.98327142,0.0002529,69.9987,147.4242,266.3584,93.7286,-3.0817e-05,-4.61e-06,0.0,0 STARLINK-5835,1 55772U 23028AH  23338.52304880 -.00000461  00000-0 -30817-4 0  9996,2 55772  69.9987 147.4242 0002529 266.3584  93.7286 14.98327142 42789,6950.202,96.107,573.824,570.309,0.0
55772.0,STARLINK-5835,PAYLOAD,2023-12-05 10:59:04,14.98323023,0.0002443,69.9989,145.0679,263.5963,96.4918,8.1535e-05,8.8e-06,0.0,0 STARLINK-5835,1 55772U 23028AH  23339.45769046  .00000880  00000-0  81535-4 0  9994,2 55772  69.9989 145.0679 0002443 263.5963  96.4918 14.98323023 42926,6950.214,96.107,573.777,570.382,0.0
55772.0,STARLINK-5835,PAYLOAD,2023-12-05 12:35:12,14.9832406,0.0002613,69.9986,144.8992,265.2548,94.8313,9.0664e-05,9.89e-06,0.0,0 STARLINK-5835,1 55772U 23028AH  23339.52444996  .00000989  00000-0  90664-4 0  9999,2 55772  69.9986 144.8992 0002613 265.2548  94.8313 14.98324060 42939,6950.211,96.107,573.892,570.26,0.0
55772.0,STARLINK-5835,PAYLOAD,2023-12-05 20:35:52,14.98325768,0.0002629,69.9987,144.0577,267.0725,93.0133,9.287e-05,1.015e-05,0.0,0 STARLINK-5835,1 55772U 23028AH  23339.85824989  .00001015  00000-0  92870-4 0  9991,2 55772  69.9987 144.0577 0002629 267.0725  93.0133 14.98325768 42987,6950.206,96.107,573.898,570.244,0.0
55772.0,STARLINK-5835,PAYLOAD,2023-12-06 11:01:05,14.98332404,0.0002751,70.0001,142.5437,269.231,90.8534,7.7407e-05,8.31e-06,0.0,0 STARLINK-5835,1 55772U 23028AH  23340.45908662  .00000831  00000-0  77407-4 0  9994,2 55772  70.0001 142.5437 0002751 269.2310  90.8534 14.98332404 43071,6950.185,96.107,573.962,570.138,0.0
55772.0,STARLINK-5835,PAYLOAD,2023-12-06 12:37:13,14.98332933,0.0002727,69.9995,142.3749,269.2764,90.8083,8.1408e-05,8.79e-06,0.0,0 STARLINK-5835,1 55772U 23028AH  23340.52584597  .00000879  00000-0  81408-4 0  9997,2 55772  69.9995 142.3749 0002727 269.2764  90.8083 14.98332933 43087,6950.184,96.107,573.944,570.154,0.0
55772.0,STARLINK-5835,PAYLOAD,2023-12-06 20:37:53,14.98333811,0.0002719,69.9992,141.5329,269.0436,91.0412,8.2288e-05,8.89e-06,0.0,0 STARLINK-5835,1 55772U 23028AH  23340.85964454  .00000889  00000-0  82288-4 0  9995,2 55772  69.9992 141.5329 0002719 269.0436  91.0412 14.98333811 43135,6950.181,96.107,573.936,570.156,0.0
55772.0,STARLINK-5835,PAYLOAD,2023-12-07 11:03:05,14.98335048,0.0002712,69.9983,140.0161,268.705,91.3798,3.1473e-05,2.83e-06,0.0,0 STARLINK-5835,1 55772U 23028AH  23341.46048333  .00000283  00000-0  31473-4 0  9990,2 55772  69.9983 140.0161 0002712 268.7050  91.3798 14.98335048 43228,6950.177,96.107,573.927,570.157,0.0
55772.0,STARLINK-5835,PAYLOAD,2023-12-07 12:39:13,14.98334494,0.000272,69.9979,139.8479,268.0491,92.0356,2.5776e-05,2.15e-06,0.0,0 STARLINK-5835,1 55772U 23028AH  23341.52724350  .00000215  00000-0  25776-4 0  9991,2 55772  69.9979 139.8479 0002720 268.0491  92.0356 14.98334494 43235,6950.179,96.107,573.934,570.154,0.0
55772.0,STARLINK-5835,PAYLOAD,2023-12-08 11:05:06,14.98333847,0.0002697,69.9979,137.4914,268.8952,91.1898,-3.2108e-05,-4.76e-06,0.0,0 STARLINK-5835,1 55772U 23028AH  23342.46188260 -.00000476  00000-0 -32108-4 0  9997,2 55772  69.9979 137.4914 0002697 268.8952  91.1898 14.98333847 43373,6950.181,96.107,573.92,570.172,0.0
55772.0,STARLINK-5835,PAYLOAD,2023-12-08 12:41:14,14.98333907,0.0002702,69.9981,137.3231,268.6672,91.4178,-3.0907e-05,-4.62e-06,0.0,0 STARLINK-5835,1 55772U 23028AH  23342.52864229 -.00000462  00000-0 -30907-4 0  9990,2 55772  69.9981 137.3231 0002702 268.6672  91.4178 14.98333907 43383,6950.181,96.107,573.924,570.168,0.0
55772.0,STARLINK-5835,PAYLOAD,2023-12-09 11:07:07,14.98332968,0.0002711,69.9984,134.9671,268.6515,91.4333,-3.3788e-06,-1.33e-06,0.0,0 STARLINK-5835,1 55772U 23028AH  23343.46327975 -.00000133  00000-0 -33788-5 0  9992,2 55772  69.9984 134.9671 0002711 268.6515  91.4333 14.98332968 43528,6950.184,96.107,573.933,570.165,0.0
55772.0,STARLINK-5835,PAYLOAD,2023-12-09 12:43:15,14.98332726,0.0002631,69.9988,134.7992,265.3433,94.7426,1.3585e-06,-7.7e-07,0.0,0 STARLINK-5835,1 55772U 23028AH  23343.53003941 -.00000077  00000-0  13585-5 0  9993,2 55772  69.9988 134.7992 0002631 265.3433  94.7426 14.98332726 43532,6950.184,96.107,573.878,570.221,0.0
55772.0,STARLINK-5835,PAYLOAD,2023-12-09 20:43:55,14.98332332,0.0002641,69.9989,133.9576,265.8139,94.2718,-3.3508e-06,-1.33e-06,0.0,0 STARLINK-5835,1 55772U 23028AH  23343.86383914 -.00000133  00000-0 -33508-5 0  9991,2 55772  69.9989 133.9576 0002641 265.8139  94.2718 14.98332332 43588,6950.186,96.107,573.886,570.215,0.0
55772.0,STARLINK-5835,PAYLOAD,2023-12-10 14:21:24,14.98329677,0.0002676,69.9987,132.1058,262.5865,97.499,2.3918e-06,-6.4e-07,0.0,0 STARLINK-5835,1 55772U 23028AH  23344.59819955 -.00000064  00000-0  23918-5 0  9997,2 55772  69.9987 132.1058 0002676 262.5865  97.4990 14.98329677 43697,6950.194,96.107,573.919,570.199,0.0
55772.0,STARLINK-5835,PAYLOAD,2023-12-10 19:09:48,14.98328219,0.0002674,69.9994,131.6016,266.9729,93.1124,-8.1023e-06,-1.9e-06,0.0,0 STARLINK-5835,1 55772U 23028AH  23344.79848121 -.00000190  00000-0 -81023-5 0  9998,2 55772  69.9994 131.6016 0002674 266.9729  93.1124 14.98328219 43725,6950.198,96.107,573.922,570.205,0.0
55772.0,STARLINK-5835,PAYLOAD,2023-12-11 14:23:25,14.98331089,0.0002793,69.9992,129.5815,266.3949,93.6891,-9.9452e-06,-2.12e-06,0.0,0 STARLINK-5835,1 55772U 23028AH  23345.59959878 -.00000212  00000-0 -99452-5 0  9999,2 55772  69.9992 129.5815 0002793 266.3949  93.6891 14.98331089 43844,6950.19,96.107,573.996,570.113,0.0
55772.0,STARLINK-5835,PAYLOAD,2023-12-11 19:11:49,14.98330805,0.0002789,69.9993,129.0767,266.4245,93.6595,-1.162e-05,-2.32e-06,0.0,0 STARLINK-5835,1 55772U 23028AH  23345.79987889 -.00000232  00000-0 -11620-4 0  9996,2 55772  69.9993 129.0767 0002789 266.4245  93.6595 14.98330805 43870,6950.19,96.107,573.994,570.117,0.0
